[{"OBJECT_NAME":"STARLINK-5836","OBJECT_ID":"2023-061N","EPOCH":"2026-03-09T22:00:01.999584","MEAN_MOTION":15.126966,"ECCENTRICITY":0.00017068,"INCLINATION":43,"RA_OF_ASC_NODE":195.5236,"ARG_OF_PERICENTER":302.4815,"MEAN_ANOMALY":180.1996,"EPHEMERIS_TYPE":0,"CLASSIFICATION_TYPE":"U","NORAD_CAT_ID":56386,"ELEMENT_SET_NO":999,"REV_AT_EPOCH":577,"BSTAR":0.0030278555,"MEAN_MOTION_DOT":0.00054131,"MEAN_MOTION_DDOT":0},{"OBJECT_NAME":"SCOUT X-1 DEB","OBJECT_ID":"1961-004G","EPOCH":"2026-03-08T23:39:42.146208","MEAN_MOTION":14.27565327,"ECCENTRICITY":0.03815607,"INCLINATION":38.8221,"RA_OF_ASC_NODE":287.5839,"ARG_OF_PERICENTER":202.4156,"MEAN_ANOMALY":155.9515,"EPHEMERIS_TYPE":0,"CLASSIFICATION_TYPE":"U","NORAD_CAT_ID":4026,"ELEMENT_SET_NO":999,"REV_AT_EPOCH":11947,"BSTAR":0.0031867079,"MEAN_MOTION_DOT":0.00017371,"MEAN_MOTION_DDOT":0}]
